CZ-2D R/B               
1 28738U 05024B   25326.03141906  .00024502  00000+0  41048-3 0  9993
2 28738  97.3644 332.9574 0008027  65.8251 294.3840 15.51812128123044
ALOS (DAICHI)           
1 28931U 06002A   25326.47150331  .00001867  00000+0  32391-3 0  9995
2 28931  98.1064 278.1062 0000784  69.3751 290.7539 14.69395900 57732
H-2A R/B                
1 28932U 06002B   25326.36654620  .00011245  00000+0  60103-3 0  9997
2 28932  98.2317  99.4631 0054286 245.8498 113.7050 15.13996739 78187
RESURS-DK 1             
1 29228U 06021A   25325.92590367  .00002638  00000+0  15946-3 0  9996
2 29228  69.9303 155.6197 0007270 275.6083  84.4253 15.11986414 71235
CZ-4B R/B               
1 29507U 06046C   25326.10567056  .00005010  00000+0  26417-3 0  9995
2 29507  97.5759   6.3013 0032602 280.7156  79.0406 15.15578060 43744
CZ-2C R/B               
1 31114U 07010B   25326.35782463  .00000213  00000+0  11718-3 0  9990
2 31114  98.3970  80.0354 0058027 245.8217 113.6888 14.20197572964483
COSMO-SKYMED 1          
1 31598U 07023A   25326.51693429  .00004066  00000+0  37198-3 0  9991
2 31598  97.8836 151.7862 0001114  89.6506 270.4842 14.95548570998876
COSMOS 2428             
1 31792U 07029A   25326.34855293 -.00000148  00000+0 -53747-4 0  9991
2 31792  70.9370  68.6900 0002582  57.4126 302.7244 14.12887076948930
SL-16 R/B               
1 31793U 07029B   25326.38330994  .00000135  00000+0  94779-4 0  9996
2 31793  70.9779  37.9472 0002277 264.0638 170.3008 14.14816319950194
KORONAS-FOTON           
1 33504U 09003A   25326.23301352  .00012541  00000+0  30707-3 0  9996
2 33504  82.4329  27.3421 0011755 176.8488 183.2834 15.40549799929186
CZ-2C R/B               
1 37731U 11030B   25326.46720747  .00002109  00000+0  27411-3 0  9990
2 37731  97.8383 281.0274 0052573 341.0189 130.0599 14.80799169774226
H-2A R/B                
1 38341U 12025E   25326.35093676  .00004793  00000+0  44461-3 0  9990
2 38341  98.4567 280.0152 0044024 305.1243  54.5852 14.94247297732189
