CCSDS_OMM_VERS = 2.0
CREATION_DATE  = 
ORIGINATOR     = 

OBJECT_NAME    = CZ-2D R/B
OBJECT_ID      = 2005-024B
CENTER_NAME    = EARTH
REF_FRAME      = TEME
TIME_SYSTEM    = UTC
MEAN_ELEMENT_THEORY = SGP/SGP4

EPOCH          = 2025-11-22T00:45:14.606784
MEAN_MOTION    = 15.51812128
ECCENTRICITY   = .0008027
INCLINATION    = 97.3644
RA_OF_ASC_NODE = 332.9574
ARG_OF_PERICENTER = 65.8251
MEAN_ANOMALY   = 294.3840

EPHEMERIS_TYPE = 0
CLASSIFICATION_TYPE = U
NORAD_CAT_ID   = 28738
ELEMENT_SET_NO = 999
REV_AT_EPOCH   = 12304
BSTAR          = .41048E-3
MEAN_MOTION_DOT = .24502E-3
MEAN_MOTION_DDOT = 0

CCSDS_OMM_VERS = 2.0
CREATION_DATE  = 
ORIGINATOR     = 

OBJECT_NAME    = ALOS (DAICHI)
OBJECT_ID      = 2006-002A
CENTER_NAME    = EARTH
REF_FRAME      = TEME
TIME_SYSTEM    = UTC
MEAN_ELEMENT_THEORY = SGP/SGP4

EPOCH          = 2025-11-22T11:18:57.885984
MEAN_MOTION    = 14.69395900
ECCENTRICITY   = .0000784
INCLINATION    = 98.1064
RA_OF_ASC_NODE = 278.1062
ARG_OF_PERICENTER = 69.3751
MEAN_ANOMALY   = 290.7539

EPHEMERIS_TYPE = 0
CLASSIFICATION_TYPE = U
NORAD_CAT_ID   = 28931
ELEMENT_SET_NO = 999
REV_AT_EPOCH   = 5773
BSTAR          = .32391E-3
MEAN_MOTION_DOT = .1867E-4
MEAN_MOTION_DDOT = 0

CCSDS_OMM_VERS = 2.0
CREATION_DATE  = 
ORIGINATOR     = 

OBJECT_NAME    = H-2A R/B
OBJECT_ID      = 2006-002B
CENTER_NAME    = EARTH
REF_FRAME      = TEME
TIME_SYSTEM    = UTC
MEAN_ELEMENT_THEORY = SGP/SGP4

EPOCH          = 2025-11-22T08:47:49.591680
MEAN_MOTION    = 15.13996739
ECCENTRICITY   = .0054286
INCLINATION    = 98.2317
RA_OF_ASC_NODE = 99.4631
ARG_OF_PERICENTER = 245.8498
MEAN_ANOMALY   = 113.7050

EPHEMERIS_TYPE = 0
CLASSIFICATION_TYPE = U
NORAD_CAT_ID   = 28932
ELEMENT_SET_NO = 999
REV_AT_EPOCH   = 7818
BSTAR          = .60103E-3
MEAN_MOTION_DOT = .11245E-3
MEAN_MOTION_DDOT = 0

CCSDS_OMM_VERS = 2.0
CREATION_DATE  = 
ORIGINATOR     = 

OBJECT_NAME    = RESURS-DK 1
OBJECT_ID      = 2006-021A
CENTER_NAME    = EARTH
REF_FRAME      = TEME
TIME_SYSTEM    = UTC
MEAN_ELEMENT_THEORY = SGP/SGP4

EPOCH          = 2025-11-21T22:13:18.077088
MEAN_MOTION    = 15.11986414
ECCENTRICITY   = .000727
INCLINATION    = 69.9303
RA_OF_ASC_NODE = 155.6197
ARG_OF_PERICENTER = 275.6083
MEAN_ANOMALY   = 84.4253

EPHEMERIS_TYPE = 0
CLASSIFICATION_TYPE = U
NORAD_CAT_ID   = 29228
ELEMENT_SET_NO = 999
REV_AT_EPOCH   = 7123
BSTAR          = .15946E-3
MEAN_MOTION_DOT = .2638E-4
MEAN_MOTION_DDOT = 0

CCSDS_OMM_VERS = 2.0
CREATION_DATE  = 
ORIGINATOR     = 

OBJECT_NAME    = CZ-4B R/B
OBJECT_ID      = 2006-046C
CENTER_NAME    = EARTH
REF_FRAME      = TEME
TIME_SYSTEM    = UTC
MEAN_ELEMENT_THEORY = SGP/SGP4

EPOCH          = 2025-11-22T02:32:09.936384
MEAN_MOTION    = 15.15578060
ECCENTRICITY   = .0032602
INCLINATION    = 97.5759
RA_OF_ASC_NODE = 6.3013
ARG_OF_PERICENTER = 280.7156
MEAN_ANOMALY   = 79.0406

EPHEMERIS_TYPE = 0
CLASSIFICATION_TYPE = U
NORAD_CAT_ID   = 29507
ELEMENT_SET_NO = 999
REV_AT_EPOCH   = 4374
BSTAR          = .26417E-3
MEAN_MOTION_DOT = .501E-4
MEAN_MOTION_DDOT = 0

CCSDS_OMM_VERS = 2.0
CREATION_DATE  = 
ORIGINATOR     = 

OBJECT_NAME    = CZ-2C R/B
OBJECT_ID      = 2007-010B
CENTER_NAME    = EARTH
REF_FRAME      = TEME
TIME_SYSTEM    = UTC
MEAN_ELEMENT_THEORY = SGP/SGP4

EPOCH          = 2025-11-22T08:35:16.048032
MEAN_MOTION    = 14.20197572
ECCENTRICITY   = .0058027
INCLINATION    = 98.3970
RA_OF_ASC_NODE = 80.0354
ARG_OF_PERICENTER = 245.8217
MEAN_ANOMALY   = 113.6888

EPHEMERIS_TYPE = 0
CLASSIFICATION_TYPE = U
NORAD_CAT_ID   = 31114
ELEMENT_SET_NO = 999
REV_AT_EPOCH   = 96448
BSTAR          = .11718E-3
MEAN_MOTION_DOT = .213E-5
MEAN_MOTION_DDOT = 0

CCSDS_OMM_VERS = 2.0
CREATION_DATE  = 
ORIGINATOR     = 

OBJECT_NAME    = COSMO-SKYMED 1
OBJECT_ID      = 2007-023A
CENTER_NAME    = EARTH
REF_FRAME      = TEME
TIME_SYSTEM    = UTC
MEAN_ELEMENT_THEORY = SGP/SGP4

EPOCH          = 2025-11-22T12:24:23.122656
MEAN_MOTION    = 14.95548570
ECCENTRICITY   = .0001114
INCLINATION    = 97.8836
RA_OF_ASC_NODE = 151.7862
ARG_OF_PERICENTER = 89.6506
MEAN_ANOMALY   = 270.4842

EPHEMERIS_TYPE = 0
CLASSIFICATION_TYPE = U
NORAD_CAT_ID   = 31598
ELEMENT_SET_NO = 999
REV_AT_EPOCH   = 99887
BSTAR          = .37198E-3
MEAN_MOTION_DOT = .4066E-4
MEAN_MOTION_DDOT = 0

CCSDS_OMM_VERS = 2.0
CREATION_DATE  = 
ORIGINATOR     = 

OBJECT_NAME    = COSMOS 2428
OBJECT_ID      = 2007-029A
CENTER_NAME    = EARTH
REF_FRAME      = TEME
TIME_SYSTEM    = UTC
MEAN_ELEMENT_THEORY = SGP/SGP4

EPOCH          = 2025-11-22T08:21:54.973152
MEAN_MOTION    = 14.12887076
ECCENTRICITY   = .0002582
INCLINATION    = 70.9370
RA_OF_ASC_NODE = 68.6900
ARG_OF_PERICENTER = 57.4126
MEAN_ANOMALY   = 302.7244

EPHEMERIS_TYPE = 0
CLASSIFICATION_TYPE = U
NORAD_CAT_ID   = 31792
ELEMENT_SET_NO = 999
REV_AT_EPOCH   = 94893
BSTAR          = -.53747E-4
MEAN_MOTION_DOT = -.148E-5
MEAN_MOTION_DDOT = 0

CCSDS_OMM_VERS = 2.0
CREATION_DATE  = 
ORIGINATOR     = 

OBJECT_NAME    = SL-16 R/B
OBJECT_ID      = 2007-029B
CENTER_NAME    = EARTH
REF_FRAME      = TEME
TIME_SYSTEM    = UTC
MEAN_ELEMENT_THEORY = SGP/SGP4

EPOCH          = 2025-11-22T09:11:57.978816
MEAN_MOTION    = 14.14816319
ECCENTRICITY   = .0002277
INCLINATION    = 70.9779
RA_OF_ASC_NODE = 37.9472
ARG_OF_PERICENTER = 264.0638
MEAN_ANOMALY   = 170.3008

EPHEMERIS_TYPE = 0
CLASSIFICATION_TYPE = U
NORAD_CAT_ID   = 31793
ELEMENT_SET_NO = 999
REV_AT_EPOCH   = 95019
BSTAR          = .94779E-4
MEAN_MOTION_DOT = .135E-5
MEAN_MOTION_DDOT = 0

CCSDS_OMM_VERS = 2.0
CREATION_DATE  = 
ORIGINATOR     = 

OBJECT_NAME    = KORONAS-FOTON
OBJECT_ID      = 2009-003A
CENTER_NAME    = EARTH
REF_FRAME      = TEME
TIME_SYSTEM    = UTC
MEAN_ELEMENT_THEORY = SGP/SGP4

EPOCH          = 2025-11-22T05:35:32.368128
MEAN_MOTION    = 15.40549799
ECCENTRICITY   = .0011755
INCLINATION    = 82.4329
RA_OF_ASC_NODE = 27.3421
ARG_OF_PERICENTER = 176.8488
MEAN_ANOMALY   = 183.2834

EPHEMERIS_TYPE = 0
CLASSIFICATION_TYPE = U
NORAD_CAT_ID   = 33504
ELEMENT_SET_NO = 999
REV_AT_EPOCH   = 92918
BSTAR          = .30707E-3
MEAN_MOTION_DOT = .12541E-3
MEAN_MOTION_DDOT = 0

CCSDS_OMM_VERS = 2.0
CREATION_DATE  = 
ORIGINATOR     = 

OBJECT_NAME    = CZ-2C R/B
OBJECT_ID      = 2011-030B
CENTER_NAME    = EARTH
REF_FRAME      = TEME
TIME_SYSTEM    = UTC
MEAN_ELEMENT_THEORY = SGP/SGP4

EPOCH          = 2025-11-22T11:12:46.725408
MEAN_MOTION    = 14.80799169
ECCENTRICITY   = .0052573
INCLINATION    = 97.8383
RA_OF_ASC_NODE = 281.0274
ARG_OF_PERICENTER = 341.0189
MEAN_ANOMALY   = 130.0599

EPHEMERIS_TYPE = 0
CLASSIFICATION_TYPE = U
NORAD_CAT_ID   = 37731
ELEMENT_SET_NO = 999
REV_AT_EPOCH   = 77422
BSTAR          = .27411E-3
MEAN_MOTION_DOT = .2109E-4
MEAN_MOTION_DDOT = 0

CCSDS_OMM_VERS = 2.0
CREATION_DATE  = 
ORIGINATOR     = 

OBJECT_NAME    = H-2A R/B
OBJECT_ID      = 2012-025E
CENTER_NAME    = EARTH
REF_FRAME      = TEME
TIME_SYSTEM    = UTC
MEAN_ELEMENT_THEORY = SGP/SGP4

EPOCH          = 2025-11-22T08:25:20.936064
MEAN_MOTION    = 14.94247297
ECCENTRICITY   = .0044024
INCLINATION    = 98.4567
RA_OF_ASC_NODE = 280.0152
ARG_OF_PERICENTER = 305.1243
MEAN_ANOMALY   = 54.5852

EPHEMERIS_TYPE = 0
CLASSIFICATION_TYPE = U
NORAD_CAT_ID   = 38341
ELEMENT_SET_NO = 999
REV_AT_EPOCH   = 73218
BSTAR          = .44461E-3
MEAN_MOTION_DOT = .4793E-4
MEAN_MOTION_DDOT = 0

